OBJECT_NAME,OBJECT_ID,EPOCH,MEAN_MOTION,ECCENTRICITY,INCLINATION,RA_OF_ASC_NODE,ARG_OF_PERICENTER,MEAN_ANOMALY,EPHEMERIS_TYPE,CLASSIFICATION_TYPE,NORAD_CAT_ID,ELEMENT_SET_NO,REV_AT_EPOCH,BSTAR,MEAN_MOTION_DOT,MEAN_MOTION_DDOT
STARLINK-32271,2024-138P,2026-06-13T21:33:58.328064,15.30191532,.0001318,53.1602,223.0086,84.4473,275.6678,0,U,60368,999,10535,.51333E-4,.1161E-4,0
STARLINK-32220,2024-138R,2026-06-13T21:14:13.237152,15.30180223,.0001302,53.1591,222.9167,99.7734,260.3414,0,U,60370,999,10535,.93634E-4,.2413E-4,0
STARLINK-32263,2024-138S,2026-06-13T10:52:08.877792,15.30196773,.00012105,53.1594,224.4915,83.8598,276.2541,0,U,60371,999,10519,.32605248E-4,.607E-5,0
STARLINK-32268,2024-138T,2026-06-13T21:35:28.470048,15.30204275,.0001011,53.1602,223.0127,75.4638,284.6474,0,U,60372,999,10535,.92146E-4,.2371E-4,0
STARLINK-32223,2024-138U,2026-06-13T20:38:56.239296,15.31703740,.00012564,53.1599,222.7696,98.4717,261.6427,0,U,60373,999,10525,.31527901E-4,.613E-5,0
STARLINK-32180,2024-138V,2026-06-13T10:55:00.463008,15.31704591,.0001558,53.1617,224.5079,121.2819,238.8335,0,U,60374,999,10529,.81386994E-4,.2161E-4,0
STARLINK-32281,2024-138W,2026-06-13T20:30:08.785440,15.30193947,.00012897,53.1609,222.7325,106.7556,253.3586,0,U,60375,999,10525,.12180043E-4,.2E-7,0
STARLINK-32277,2024-138X,2026-06-13T21:18:46.249056,15.30192629,.0001225,53.1597,222.9377,85.2667,274.8474,0,U,60376,999,10535,.43837E-4,.939E-5,0
STARLINK-32269,2024-138Y,2026-06-14T04:00:01.998720,15.31695868,.0001248,53.1581,221.4394,82.8368,115.7730,0,U,60377,999,580,.83663E-3,.25682E-3,0
STARLINK-11228 [DTC],2024-141A,2026-06-13T18:32:48.100416,15.69711921,.00008075,53.1583,332.6268,103.1486,256.9622,0,U,60398,999,10678,.6732176E-5,.228E-5,0
STARLINK-11182 [DTC],2024-141B,2026-06-13T18:11:37.420800,15.69701718,.00009445,53.1599,332.5289,97.3657,262.7469,0,U,60399,999,10683,-.8530201E-5,-.1621E-4,0
STARLINK-11234 [DTC],2024-141C,2026-06-13T18:04:33.640032,15.69700067,.00012379,53.1603,332.4923,78.1398,281.9759,0,U,60400,999,10678,-.306535E-6,-.626E-5,0
STARLINK-11232 [DTC],2024-141D,2026-06-13T22:32:32.388000,15.69703464,.0000954,53.1586,331.5207,80.5736,279.5390,0,U,60401,999,10686,-.26218E-5,-.906E-5,0
STARLINK-11139 [DTC],2024-141E,2026-06-14T04:32:11.971680,15.69718746,.0000933,53.1599,330.2350,75.9179,284.1942,0,U,60402,999,10690,.10023E-4,.626E-5,0
STARLINK-11158 [DTC],2024-141F,2026-06-14T04:25:17.084064,15.69715122,.0000956,53.1600,330.9346,67.1331,292.9788,0,U,60403,999,10684,.14243E-4,.1138E-4,0
STARLINK-11199 [DTC],2024-141G,2026-06-14T04:18:12.719232,15.69728154,.0000534,53.1584,330.8978,97.3473,262.7606,0,U,60404,999,10689,.31808E-4,.327E-4,0
STARLINK-11081 [DTC],2024-141H,2026-06-13T17:29:23.194752,15.69697336,.00005633,53.1577,333.0618,80.5587,279.5494,0,U,60405,999,10677,-.4198231E-5,-.1096E-4,0
STARLINK-11150 [DTC],2024-141J,2026-06-13T17:22:19.299072,15.69702475,.0001212,53.1605,333.0295,102.4953,257.6201,0,U,60406,999,10682,.2830503E-5,-.246E-5,0
STARLINK-11136 [DTC],2024-141K,2026-06-14T03:57:01.991232,15.69709741,.0001416,53.1606,330.8011,114.1051,246.0115,0,U,60407,999,10684,.13439E-4,.1039E-4,0
STARLINK-11196 [DTC],2024-141L,2026-06-14T03:49:57.743040,15.69715501,.0000845,53.1581,330.7700,124.6131,235.4967,0,U,60408,999,10689,.14183E-4,.1131E-4,0
STARLINK-11174 [DTC],2024-141M,2026-06-13T18:25:44.080320,15.69711926,.00008975,53.1585,332.5878,120.1093,240.0014,0,U,60409,999,10678,.957654E-5,.572E-5,0
STARLINK-11191 [DTC],2024-141N,2026-06-13T18:18:40.723776,15.69706569,.00010446,53.1595,332.5559,119.8280,240.2842,0,U,60410,999,10683,.3952472E-5,-.11E-5,0
STARLINK-32244,2024-141P,2026-06-14T03:44:32.390880,15.31693865,.0001317,53.1588,154.2567,91.2725,268.8428,0,U,60411,999,10435,-.11401E-4,-.719E-5,0
STARLINK-32186,2024-141Q,2026-06-14T04:32:04.956864,15.34389989,.0001138,53.1603,153.0476,92.4081,267.7052,0,U,60412,999,10431,.94074E-5,-.58E-6,0
STARLINK-32178,2024-141R,2026-06-14T04:19:58.046880,15.34392639,.0001387,53.1604,152.9949,99.3363,260.7796,0,U,60413,999,10431,-.1801E-4,-.985E-5,0
STARLINK-32234,2024-141S,2026-06-14T05:05:03.268032,15.31687922,.0001323,53.1601,153.8935,83.7482,276.3670,0,U,60414,999,10436,.11843E-4,.2E-7,0
STARLINK-32265,2024-141T,2026-06-14T04:29:03.200640,15.34389658,.0001272,53.1600,153.0339,100.5380,259.5766,0,U,60415,999,10437,-.37699E-5,-.504E-5,0
STARLINK-32197,2024-141U,2026-06-14T05:08:23.462880,15.31709253,.0001153,53.1602,143.9470,81.6159,278.4973,0,U,60416,999,10444,.4778E-4,.1118E-4,0
STARLINK-32255,2024-141V,2026-06-14T05:05:25.103040,15.34384637,.0001243,53.1610,153.1875,88.7170,271.3975,0,U,60417,999,10437,.18861E-5,-.312E-5,0
STARLINK-32236,2024-141W,2026-06-14T03:34:39.019008,15.34383471,.0001398,53.1603,153.5025,93.9677,266.1485,0,U,60418,999,10436,-.85382E-5,-.665E-5,0
STARLINK-32250,2024-144A,2026-06-14T04:40:08.708736,15.34398468,.0001109,53.1617,128.9410,80.2061,279.9067,0,U,60425,999,10318,.28978E-5,-.278E-5,0
STARLINK-32226,2024-144B,2026-06-14T04:00:01.998720,15.34398307,.0001314,53.1583,129.1393,80.5121,90.6690,0,U,60426,999,585,.16615E-3,.5241E-4,0
STARLINK-32254,2024-144C,2026-06-14T04:00:01.998720,15.34378851,.0001539,53.1589,129.0474,88.3212,129.4919,0,U,60427,999,570,.74722E-4,.2147E-4,0
STARLINK-32193,2024-144D,2026-06-14T04:00:01.998720,15.33546393,.000113,53.1588,129.1985,83.9535,56.4357,0,U,60428,999,585,-.18244E-4,-.972E-5,0
STARLINK-32242,2024-144E,2026-06-14T04:51:53.668800,15.30191362,.0001449,53.1608,128.9904,92.3259,267.7908,0,U,60429,999,10412,-.45097E-5,-.493E-5,0
STARLINK-32196,2024-144F,2026-06-14T04:33:24.558048,15.34383018,.0001358,53.1602,127.4948,100.0904,260.0251,0,U,60430,999,10410,-.27886E-4,-.1318E-4,0
STARLINK-32232,2024-144G,2026-06-14T04:57:58.186944,15.30188785,.0001045,53.1595,129.0148,119.7715,240.3390,0,U,60431,999,10408,-.12213E-4,-.721E-5,0
STARLINK-32246,2024-144H,2026-06-14T04:40:57.022752,15.30424064,.0001825,53.1604,128.9429,138.9232,221.1907,0,U,60432,999,10408,.10109E-2,.29909E-3,0
STARLINK-32183,2024-144J,2026-06-14T03:04:09.939648,15.30191022,.000141,53.1603,129.2339,102.3969,257.7189,0,U,60433,999,10407,-.16967E-4,-.862E-5,0
STARLINK-32233,2024-144K,2026-06-14T03:05:39.963264,15.34387823,.0001368,53.1600,127.8218,91.6451,268.4708,0,U,60434,999,10409,.25206E-4,.475E-5,0
STARLINK-32222,2024-144L,2026-06-14T04:21:16.047072,15.34400850,.0001232,53.1598,127.4398,91.6062,268.5081,0,U,60435,999,10410,-.51841E-5,-.551E-5,0
STARLINK-32229,2024-144M,2026-06-14T04:12:11.500704,15.34388907,.0001343,53.1599,127.3993,82.4685,277.6470,0,U,60436,999,10410,-.10453E-4,-.729E-5,0
STARLINK-32241,2024-144N,2026-06-14T04:48:32.846688,15.34383636,.0001397,53.1608,127.5513,73.0378,287.0778,0,U,60437,999,10410,.58624E-4,.1604E-4,0
STARLINK-32240,2024-144P,2026-06-14T04:09:09.829152,15.34386752,.0001282,53.1598,127.3858,78.6277,281.4870,0,U,60438,999,10414,-.21532E-4,-.1103E-4,0
STARLINK-32231,2024-144Q,2026-06-14T04:36:26.646048,15.34394636,.0001145,53.1596,127.5042,103.4821,256.6309,0,U,60439,999,10320,.48477E-4,.1262E-4,0
STARLINK-32195,2024-144R,2026-06-14T04:03:06.224256,15.34385548,.0001622,53.1605,127.3625,98.2143,261.9043,0,U,60440,999,10410,-.36938E-4,-.1624E-4,0
STARLINK-32177,2024-144S,2026-06-14T03:50:59.157888,15.34382641,.0001479,53.1612,127.3077,92.0735,268.0437,0,U,60441,999,10410,-.20084E-4,-.1054E-4,0
STARLINK-32252,2024-144T,2026-06-14T04:06:08.106624,15.34386526,.0001348,53.1611,127.3710,81.0989,279.0166,0,U,60442,999,10414,-.348E-4,-.1551E-4,0
STARLINK-32237,2024-144U,2026-06-14T04:45:31.488768,15.34393084,.0001629,53.1612,127.5363,77.5895,282.5290,0,U,60443,999,10410,-.28697E-4,-.1346E-4,0
STARLINK-32249,2024-144V,2026-06-14T04:24:18.777024,15.34386254,.0001022,53.1603,127.4486,89.6988,270.4132,0,U,60444,999,10414,.26552E-4,.521E-5,0
STARLINK-32228,2024-144W,2026-06-14T03:38:52.101888,15.34382524,.0001378,53.1597,127.2527,90.4233,269.6928,0,U,60445,999,10414,-.33632E-4,-.1512E-4,0
STARLINK-32247,2024-144X,2026-06-14T03:46:38.856288,15.30175900,.0000947,53.1613,118.6228,100.6365,259.4743,0,U,60446,999,10426,.85052E-4,.2159E-4,0
STARLINK-32101,2024-144Y,2026-06-14T03:44:55.533120,15.34383176,.000151,53.1610,127.2813,91.3154,268.8021,0,U,60447,999,10410,.94039E-5,-.59E-6,0
STARLINK-31844,2024-150A,2026-06-13T10:40:00.879168,15.31705868,.00008805,53.1600,221.4264,86.6484,273.4618,0,U,60583,999,10271,.33734608E-4,.682E-5,0
STARLINK-32204,2024-150B,2026-06-14T02:56:01.263840,15.34386971,.0001415,53.1605,217.8343,112.3602,247.7551,0,U,60584,999,10282,-.15534E-4,-.901E-5,0
STARLINK-32130,2024-150C,2026-06-13T20:52:08.249952,15.30191794,.0001226,53.1591,220.5162,94.3533,265.7608,0,U,60585,999,10268,.36562E-4,.724E-5,0
STARLINK-32173,2024-150D,2026-06-13T10:29:34.647648,15.34398290,.00011103,53.1599,220.6667,80.7123,279.4005,0,U,60586,999,10272,.8677374E-5,-.83E-6,0
STARLINK-31911,2024-150E,2026-06-13T20:34:49.289952,15.34360104,.00013802,53.1605,219.0222,70.0158,290.0994,0,U,60587,999,10270,-.7322977E-4,-.2846E-4,0
STARLINK-31994,2024-150F,2026-06-13T21:17:03.904800,15.34391734,.0001542,53.1592,218.4976,83.6122,276.5057,0,U,60588,999,10271,.31391E-4,.684E-5,0
STARLINK-32169,2024-150G,2026-06-14T01:51:00.779040,15.30190494,.0001325,53.1598,219.6785,98.2590,261.8561,0,U,60589,999,10279,.48417E-5,-.216E-5,0
STARLINK-32209,2024-150H,2026-06-13T10:38:39.925824,15.34396510,.0001325,53.1608,220.7093,106.2176,253.8973,0,U,60590,999,10272,.44999833E-4,.1144E-4,0
STARLINK-32170,2024-150J,2026-06-13T21:01:15.900672,15.30192125,.0001068,53.1595,220.5544,76.9593,283.1527,0,U,60591,999,10268,.11804E-3,.3138E-4,0
STARLINK-31497,2024-150K,2026-06-13T20:22:39.466560,15.34391044,.00012567,53.1595,218.9747,94.6076,265.5070,0,U,60592,999,10278,.2300578E-4,.401E-5,0
STARLINK-32161,2024-150L,2026-06-13T20:19:37.939296,15.34387229,.00011306,53.1607,218.9595,82.3143,277.7988,0,U,60593,999,10270,.3335934E-4,.751E-5,0
